start=new Date('2023-02-13T00:00:00.000Z').valueOf();
sats=[{"SEMIMAJOR_AXIS":"6925.362","TLE_LINE2":"2 47997  53.0541 305.0531 0001242 108.4507 251.6617 15.06395770105914","APOAPSIS":"548.087","COUNTRY_CODE":"US","OBJECT_NAME":"STARLINK-2266","FILE":"3787692","RA_OF_ASC_NODE":"305.0531","ECCENTRICITY":"0.00012420","MEAN_ANOMALY":"251.6617","SITE":"AFETR","MEAN_ELEMENT_THEORY":"SGP4","OBJECT_ID":"2021-024W","RCS_SIZE":"LARGE","ELEMENT_SET_NO":"999","REV_AT_EPOCH":"10591","BSTAR":"0.00138100000000","PERIOD":"95.592","REF_FRAME":"TEME","DECAY_DATE":null,"OBJECT_TYPE":"PAYLOAD","MEAN_MOTION_DOT":"0.00020346","NORAD_CAT_ID":"47997","LAUNCH_DATE":"2021-03-24","CENTER_NAME":"EARTH","MEAN_MOTION_DDOT":"0.0000000000000","EPOCH":"2023-02-12T10:49:25.113504","TLE_LINE1":"1 47997U 21024W   23043.45098511  .00020346  00000-0  13810-2 0  9990","EPHEMERIS_TYPE":"0","ARG_OF_PERICENTER":"108.4507","CLASSIFICATION_TYPE":"U","PERIAPSIS":"546.366","MEAN_MOTION":"15.06395770","TIME_SYSTEM":"UTC","GP_ID":"225235348","INCLINATION":"53.0541"},{"ELEMENT_SET_NO":"999","BSTAR":"0.00097953000000","REV_AT_EPOCH":"10619","PERIOD":"95.593","OBJECT_TYPE":"PAYLOAD","REF_FRAME":"TEME","DECAY_DATE":null,"NORAD_CAT_ID":"47998","MEAN_MOTION_DOT":"0.00014332","LAUNCH_DATE":"2021-03-24","CENTER_NAME":"EARTH","MEAN_MOTION_DDOT":"0.0000000000000","EPOCH":"2023-02-12T09:25:11.880768","TLE_LINE1":"1 47998U 21024X   23043.39249862  .00014332  00000-0  97953-3 0  9990","CLASSIFICATION_TYPE":"U","ARG_OF_PERICENTER":"85.3692","EPHEMERIS_TYPE":"0","MEAN_MOTION":"15.06384481","PERIAPSIS":"545.997","TIME_SYSTEM":"UTC","GP_ID":"225234111","INCLINATION":"53.0526","SEMIMAJOR_AXIS":"6925.396","APOAPSIS":"548.525","TLE_LINE2":"2 47998  53.0526 280.5623 0001825  85.3692 274.7505 15.06384481106192","FILE":"3787692","COUNTRY_CODE":"US","OBJECT_NAME":"STARLINK-2296","RA_OF_ASC_NODE":"280.5623","ECCENTRICITY":"0.00018250","MEAN_ANOMALY":"274.7505","SITE":"AFETR","MEAN_ELEMENT_THEORY":"SGP4","OBJECT_ID":"2021-024X","RCS_SIZE":"LARGE"},{"SITE":"AFETR","MEAN_ANOMALY":"282.4887","MEAN_ELEMENT_THEORY":"SGP4","OBJECT_ID":"2021-024Y","RCS_SIZE":"LARGE","SEMIMAJOR_AXIS":"6925.423","TLE_LINE2":"2 47999  53.0540 249.6449 0001359  77.6254 282.4887 15.06375689106639","APOAPSIS":"548.229","COUNTRY_CODE":"US","OBJECT_NAME":"STARLINK-2218","FILE":"3787692","RA_OF_ASC_NODE":"249.6449","ECCENTRICITY":"0.00013590","MEAN_MOTION_DDOT":"0.0000000000000","EPOCH":"2023-02-12T13:00:05.838336","TLE_LINE1":"1 47999U 21024Y   23043.54173424 -.00004677  00000-0 -29546-3 0  9994","ARG_OF_PERICENTER":"77.6254","EPHEMERIS_TYPE":"0","CLASSIFICATION_TYPE":"U","PERIAPSIS":"546.347","MEAN_MOTION":"15.06375689","GP_ID":"225234359","TIME_SYSTEM":"UTC","INCLINATION":"53.0540","ELEMENT_SET_NO":"999","REV_AT_EPOCH":"10663","BSTAR":"-0.00029546000000","PERIOD":"95.594","DECAY_DATE":null,"REF_FRAME":"TEME","OBJECT_TYPE":"PAYLOAD","MEAN_MOTION_DOT":"-0.00004677","NORAD_CAT_ID":"47999","LAUNCH_DATE":"2021-03-24","CENTER_NAME":"EARTH"},{"SITE":"AFETR","MEAN_ANOMALY":"294.1973","MEAN_ELEMENT_THEORY":"SGP4","OBJECT_ID":"2021-024Z","RCS_SIZE":"LARGE","SEMIMAJOR_AXIS":"6925.333","APOAPSIS":"547.831","TLE_LINE2":"2 48000  53.0515 234.8683 0000914  65.9112 294.1973 15.06405184106854","FILE":"3787692","COUNTRY_CODE":"US","OBJECT_NAME":"STARLINK-2270","RA_OF_ASC_NODE":"234.8683","ECCENTRICITY":"0.00009140","MEAN_MOTION_DDOT":"0.0000000000000","EPOCH":"2023-02-12T12:55:29.604576","TLE_LINE1":"1 48000U 21024Z   23043.53853709  .00001891  00000-0  14579-3 0  9991","CLASSIFICATION_TYPE":"U","EPHEMERIS_TYPE":"0","ARG_OF_PERICENTER":"65.9112","MEAN_MOTION":"15.06405184","PERIAPSIS":"546.565","GP_ID":"225234609","TIME_SYSTEM":"UTC","INCLINATION":"53.0515","ELEMENT_SET_NO":"999","BSTAR":"0.00014579000000","REV_AT_EPOCH":"10685","PERIOD":"95.592","OBJECT_TYPE":"PAYLOAD","DECAY_DATE":null,"REF_FRAME":"TEME","NORAD_CAT_ID":"48000","MEAN_MOTION_DOT":"0.00001891","LAUNCH_DATE":"2021-03-24","CENTER_NAME":"EARTH"},{"MEAN_ANOMALY":"264.4887","SITE":"AFETR","MEAN_ELEMENT_THEORY":"SGP4","OBJECT_ID":"2021-024AB","RCS_SIZE":"LARGE","SEMIMAJOR_AXIS":"6925.362","APOAPSIS":"547.979","TLE_LINE2":"2 48002  53.0508 254.8593 0001085  95.6226 264.4887 15.06395482106567","FILE":"3787692","COUNTRY_CODE":"US","OBJECT_NAME":"STARLINK-2265","RA_OF_ASC_NODE":"254.8593","ECCENTRICITY":"0.00010850","MEAN_MOTION_DDOT":"0.0000000000000","EPOCH":"2023-02-12T13:35:20.199264","TLE_LINE1":"1 48002U 21024AB  23043.56620601  .00001332  00000-0  10833-3 0  9998","CLASSIFICATION_TYPE":"U","EPHEMERIS_TYPE":"0","ARG_OF_PERICENTER":"95.6226","MEAN_MOTION":"15.06395482","PERIAPSIS":"546.476","TIME_SYSTEM":"UTC","GP_ID":"225234849","INCLINATION":"53.0508","ELEMENT_SET_NO":"999","BSTAR":"0.00010833000000","REV_AT_EPOCH":"10656","PERIOD":"95.592","OBJECT_TYPE":"PAYLOAD","REF_FRAME":"TEME","DECAY_DATE":null,"NORAD_CAT_ID":"48002","MEAN_MOTION_DOT":"0.00001332","LAUNCH_DATE":"2021-03-24","CENTER_NAME":"EARTH"},{"MEAN_ELEMENT_THEORY":"SGP4","SITE":"AFETR","MEAN_ANOMALY":"227.6285","RCS_SIZE":"LARGE","OBJECT_ID":"2021-024AC","APOAPSIS":"548.187","TLE_LINE2":"2 48003  53.0540 330.7879 0001552 132.4835 227.6285 15.06433038105472","FILE":"3787692","OBJECT_NAME":"STARLINK-2263","COUNTRY_CODE":"US","SEMIMAJOR_AXIS":"6925.247","RA_OF_ASC_NODE":"330.7879","ECCENTRICITY":"0.00015520","TLE_LINE1":"1 48003U 21024AC  23043.28832743  .00040788  00000-0  27389-2 0  9991","MEAN_MOTION_DDOT":"0.0000000000000","EPOCH":"2023-02-12T06:55:11.489952","TIME_SYSTEM":"UTC","GP_ID":"225233612","INCLINATION":"53.0540","CLASSIFICATION_TYPE":"U","EPHEMERIS_TYPE":"0","ARG_OF_PERICENTER":"132.4835","MEAN_MOTION":"15.06433038","PERIAPSIS":"546.038","BSTAR":"0.00273890000000","REV_AT_EPOCH":"10547","PERIOD":"95.590","ELEMENT_SET_NO":"999","NORAD_CAT_ID":"48003","MEAN_MOTION_DOT":"0.00040788","LAUNCH_DATE":"2021-03-24","CENTER_NAME":"EARTH","OBJECT_TYPE":"PAYLOAD","DECAY_DATE":null,"REF_FRAME":"TEME"},{"OBJECT_ID":"2021-024AE","RCS_SIZE":"LARGE","SITE":"AFETR","MEAN_ANOMALY":"273.0884","MEAN_ELEMENT_THEORY":"SGP4","RA_OF_ASC_NODE":"300.2932","ECCENTRICITY":"0.00017050","SEMIMAJOR_AXIS":"6925.368","TLE_LINE2":"2 48005  53.0541 300.2932 0001705  87.0300 273.0884 15.06393565105918","APOAPSIS":"548.414","OBJECT_NAME":"STARLINK-2254","COUNTRY_CODE":"US","FILE":"3787692","EPHEMERIS_TYPE":"0","ARG_OF_PERICENTER":"87.0300","CLASSIFICATION_TYPE":"U","PERIAPSIS":"546.053","MEAN_MOTION":"15.06393565","GP_ID":"225233860","TIME_SYSTEM":"UTC","INCLINATION":"53.0541","MEAN_MOTION_DDOT":"0.0000000000000","EPOCH":"2023-02-12T09:33:06.877728","TLE_LINE1":"1 48005U 21024AE  23043.39799627  .00012325  00000-0  84500-3 0  9993","REF_FRAME":"TEME","DECAY_DATE":null,"OBJECT_TYPE":"PAYLOAD","NORAD_CAT_ID":"48005","MEAN_MOTION_DOT":"0.00012325","LAUNCH_DATE":"2021-03-24","CENTER_NAME":"EARTH","ELEMENT_SET_NO":"999","REV_AT_EPOCH":"10591","BSTAR":"0.00084500000000","PERIOD":"95.593"},{"RCS_SIZE":"LARGE","OBJECT_ID":"2021-024AH","MEAN_ELEMENT_THEORY":"SGP4","MEAN_ANOMALY":"277.0786","SITE":"AFETR","ECCENTRICITY":"0.00011570","RA_OF_ASC_NODE":"233.4118","FILE":"3787991","COUNTRY_CODE":"US","OBJECT_NAME":"STARLINK-2271","APOAPSIS":"548.010","TLE_LINE2":"2 48008  53.0510 233.4118 0001157  83.0335 277.0786 15.06401595106420","SEMIMAJOR_AXIS":"6925.344","INCLINATION":"53.0510","TIME_SYSTEM":"UTC","GP_ID":"225272803","MEAN_MOTION":"15.06401595","PERIAPSIS":"546.407","CLASSIFICATION_TYPE":"U","EPHEMERIS_TYPE":"0","ARG_OF_PERICENTER":"83.0335","TLE_LINE1":"1 48008U 21024AH  23043.81770439  .00001362  00000-0  11030-3 0  9990","EPOCH":"2023-02-12T19:37:29.659296","MEAN_MOTION_DDOT":"0.0000000000000","LAUNCH_DATE":"2021-03-24","CENTER_NAME":"EARTH","MEAN_MOTION_DOT":"0.00001362","NORAD_CAT_ID":"48008","OBJECT_TYPE":"PAYLOAD","DECAY_DATE":null,"REF_FRAME":"TEME","PERIOD":"95.592","BSTAR":"0.00011030000000","REV_AT_EPOCH":"10642","ELEMENT_SET_NO":"999"},{"SEMIMAJOR_AXIS":"6925.096","APOAPSIS":"548.066","TLE_LINE2":"2 48009  53.0493 311.4301 0001596 106.5013 253.6152 15.06482391105747","FILE":"3787692","COUNTRY_CODE":"US","OBJECT_NAME":"STARLINK-2153","RA_OF_ASC_NODE":"311.4301","ECCENTRICITY":"0.00015960","SITE":"AFETR","MEAN_ANOMALY":"253.6152","MEAN_ELEMENT_THEORY":"SGP4","OBJECT_ID":"2021-024AJ","RCS_SIZE":"LARGE","ELEMENT_SET_NO":"999","BSTAR":"0.00156340000000","REV_AT_EPOCH":"10574","PERIOD":"95.587","OBJECT_TYPE":"PAYLOAD","REF_FRAME":"TEME","DECAY_DATE":null,"MEAN_MOTION_DOT":"0.00023134","NORAD_CAT_ID":"48009","LAUNCH_DATE":"2021-03-24","CENTER_NAME":"EARTH","MEAN_MOTION_DDOT":"0.0000000000000","EPOCH":"2023-02-12T03:30:47.108448","TLE_LINE1":"1 48009U 21024AJ  23043.14637857  .00023134  00000-0  15634-2 0  9997","CLASSIFICATION_TYPE":"U","ARG_OF_PERICENTER":"106.5013","EPHEMERIS_TYPE":"0","MEAN_MOTION":"15.06482391","PERIAPSIS":"545.856","GP_ID":"225235349","TIME_SYSTEM":"UTC","INCLINATION":"53.0493"},{"TLE_LINE1":"1 48010U 21024AK  23043.82280503  .00033468  00000-0  22553-2 0  9995","MEAN_MOTION_DDOT":"0.0000000000000","EPOCH":"2023-02-12T19:44:50.354592","TIME_SYSTEM":"UTC","GP_ID":"225272816","INCLINATION":"53.0534","ARG_OF_PERICENTER":"37.8419","EPHEMERIS_TYPE":"0","CLASSIFICATION_TYPE":"U","PERIAPSIS":"546.682","MEAN_MOTION":"15.06396076","REV_AT_EPOCH":"10508","BSTAR":"0.00225530000000","PERIOD":"95.592","ELEMENT_SET_NO":"999","MEAN_MOTION_DOT":"0.00033468","NORAD_CAT_ID":"48010","LAUNCH_DATE":"2021-03-24","CENTER_NAME":"EARTH","REF_FRAME":"TEME","DECAY_DATE":null,"OBJECT_TYPE":"PAYLOAD","MEAN_ELEMENT_THEORY":"SGP4","MEAN_ANOMALY":"322.2625","SITE":"AFETR","RCS_SIZE":"LARGE","OBJECT_ID":"2021-024AK","TLE_LINE2":"2 48010  53.0534 328.3914 0000785  37.8419 322.2625 15.06396076105086","APOAPSIS":"547.769","COUNTRY_CODE":"US","OBJECT_NAME":"STARLINK-2226","FILE":"3787992","SEMIMAJOR_AXIS":"6925.361","RA_OF_ASC_NODE":"328.3914","ECCENTRICITY":"0.00007850"}];
